#aV2024  3 18  0  0  0.00000000     288 DD+AD WGS84 FIT  NGA
## 2306  86400.00000000   300.00000000 60387 0.0000000000000
+   32     1  2  3  4  5  6  7  8  9 10 11 12 13 14 15 16 17
+         18 19 20 21 22 23 24 25 26 27 28 29 30 31 32  0  0
+          0  0  0  0  0  0  0  0  0  0  0  0  0  0  0  0  0
+          0  0  0  0  0  0  0  0  0  0  0  0  0  0  0  0  0
+          0  0  0  0  0  0  0  0  0  0  0  0  0  0  0  0  0
++         2  2  2  2  2  2  2  2  2  2  2  2  2  2  2  2  2
++         2  2  2  2  2  2  2  2  2  2  2  2  2  2  2  0  0
++         0  0  0  0  0  0  0  0  0  0  0  0  0  0  0  0  0
++         0  0  0  0  0  0  0  0  0  0  0  0  0  0  0  0  0
++         0  0  0  0  0  0  0  0  0  0  0  0  0  0  0  0  0
%c cc cc ccc ccc cccc cccc cccc cccc ccccc ccccc ccccc ccccc
%c cc cc ccc ccc cccc cccc cccc cccc ccccc ccccc ccccc ccccc
%f  0.0000000  0.000000000  0.00000000000  0.000000000000000
%f  0.0000000  0.000000000  0.00000000000  0.000000000000000
%i    0    0    0    0      0      0      0      0         0
%i    0    0    0    0      0      0      0      0         0
/*      NGA, ST. LOUIS,MO.                                  
/*   EPHEMERIS COMPUTED FROM 2 DAYS OF DATA                 
/*   EPOCHA v9 SMOOTHER                                     
/*   G2296 IERS2010 SATIGS SATAPC                           
*  2024  3 18 11  5  0.00000000
P  1 -23651.866235 -11950.634066  -3964.211786    174.610533                    
V  1   4777.153433    229.145681 -31672.394851      0.020639                    
P  2 -18921.961439 -13854.412767 -12233.341034   -468.343237                    
V  2  16185.288649   2211.969827 -26228.243574      0.062290                    
P  3 -12002.842337 -20071.551588  12563.101242    259.139095                    
V  3  -1109.623835 -16152.037306 -26439.568928      0.223719                    
P  4 -11613.194014 -10026.380215  21707.681365    317.736359                    
V  4  21506.207701 -17139.660692   3462.632290      0.090666                    
P  5   5975.411749  25826.557521   -153.085407   -165.828374                    
V  5  -2543.554613    563.948336  32021.526886     -0.014016                    
P  6 -15139.002704   8461.911235  20215.335451    362.713063                    
V  6 -23518.331222  -9655.113413 -13507.107076     -0.165701                    
P  7 -25625.798734  -5207.113488  -5413.131847    -87.009659                    
V  7  -6046.488694  -5098.712147  30230.436927     -0.087287                    
P  8  -3931.185426 -16187.503898 -20695.768671     63.322210                    
V  8  20211.992894 -16664.211599   9663.307314      0.267272                    
P  9 -20613.564588   2743.278951  16475.381441    128.720212                    
V  9  14539.062853 -15346.900345  20591.654043      0.132086                    
P 10  11599.554855 -12108.183690 -20305.140707     -1.013736                    
V 10   5575.754746  25703.281665 -12328.044722     -0.021495                    
P 11  -2438.409545  15200.303658  21672.060499   -610.273700                    
V 11 -25444.489374 -10272.051877   4300.371446     -0.115739                    
P 12  10385.330878  21416.898386  11562.762194   -488.279416                    
V 12   -751.706179  15267.510032 -26875.664842     -0.035667                    
P 13  -6560.354074  18551.147053 -17933.463537    635.164138                    
V 13 -19824.970231  10593.793592  18639.966042      0.033024                    
P 14 -14105.723988   7966.389894 -20992.853608    353.562460                    
V 14  -4808.489508 -26379.392865  -6965.205730      0.097406                    
P 15   6020.011772  16204.309575 -20611.327417    138.908241                    
V 15 -17512.099213  18192.700577   9619.047599      0.040092                    
P 16    591.645063 -25926.324753   4138.389553   -338.357828                    
V 16   3646.411297   5438.976308  31496.000615      0.089125                    
P 17 -22836.266820  12551.148161  -5126.687349    713.251305                    
V 17   4205.342286  -6100.736493 -30966.906445     -0.014600                    
P 18  25255.310951   4384.884842  -7302.826293   -577.823658                    
V 18   7868.291243   5262.384257  30130.045439     -0.074105                    
P 19 -20247.692074  16489.175333   3417.258921    455.633046                    
V 19  -5421.828390    208.655671 -31784.675441      0.053168                    
P 20   -632.173716  23657.573761  12276.246453    383.498889                    
V 20  -7573.948304 -13678.665723  25948.046385     -0.014001                    
P 21 -14879.092286 -15372.907554 -15882.270612    130.888595                    
V 21  20320.533319   3897.024004 -21181.922555     -0.015087                    
P 22 -10821.615135  16526.004181 -17468.780499     14.143557                    
V 22  -3545.995810 -22695.231675 -18536.419697     -0.058828                    
P 23  15243.825642   1544.553248 -21693.606874    179.838977                    
V 23   5279.073819  27014.889797   5442.512059      0.086943                    
P 24  16781.528898  15365.080742 -14444.708675   -447.915638                    
V 24 -17573.435142  -2151.310062 -22964.901704     -0.052449                    
P 25  15321.599641  12008.521812  17844.492111    491.607727                    
V 25   2792.252686  23175.565381 -17395.316926      0.009867                    
P 26   6243.551681 -20651.962976  15096.820868    178.083200                    
V 26   7753.408577  18309.182040  21990.038670     -0.045785                    
P 27   8195.469952 -20472.339176 -14765.253056    -12.634875                    
V 27  15477.283998 -10250.999161  23673.090335     -0.027640                    
P 28  17409.496150  -7852.111969  18438.070212   -168.873029                    
V 28  21832.718836   8681.607215 -16905.625384     -0.140499                    
P 29  19759.876802    693.443907  17731.727164   -604.492457                    
V 29 -17498.338767  14295.857675  18782.124019      0.009813                    
P 30 -21720.823503   3729.712660 -14877.414972   -418.088100                    
V 30 -17087.521731  -8856.035446  22252.944519      0.053111                    
P 31   8199.603449 -13089.651401  21423.914438   -227.989938                    
V 31  25762.476941  10163.253579  -3222.584643     -0.000464                    
P 32  21180.610070 -15542.990305  -2848.302264   -616.169676                    
V 32  -1019.257789   4787.760063 -31628.351611     -0.011670                    
EOF
